{"type": "FeatureCollection", "features": [ {"type": "Feature", "properties": {"norad_id": 34823, "name": "COSMOS 2251 DEB", "group": "cosmos-2251-debris", "lat": 23.63591173485798, "lon": 102.4434273076008, "alt_km": 807.0602276255368, "timestamp": "2025-12-16T10:53:45.866347+00:00", "meta": {"OBJECT_NAME": "COSMOS 2251 DEB", "OBJECT_ID": "1993-036ABN", "EPOCH": "2025-12-15T06:43:32.774880", "MEAN_MOTION": 14.54950016, "ECCENTRICITY": 0.01545068, "INCLINATION": 74.0412, "RA_OF_ASC_NODE": 97.4704, "ARG_OF_PERICENTER": 181.6256, "MEAN_ANOMALY": 178.4428, "EPHEMERIS_TYPE": 0, "CLASSIFICATION_TYPE": "U", "NORAD_CAT_ID": 34823, "ELEMENT_SET_NO": 999, "REV_AT_EPOCH": 88418, "BSTAR": 0.00053820564, "MEAN_MOTION_DOT": 2.686e-05, "MEAN_MOTION_DDOT": 0}, "tle": {"line1": "1 34823U 93036ABN 25349.28024045  .00002686  00000+0  53821-3 0  9992", "line2": "2 34823  74.0412  97.4704 0154506 181.6256 178.4428 14.54950016884189"}}, "geometry": {"type": "Point", "coordinates": [102.4434273076008, 23.63591173485798]}}, {"type": "Feature", "properties": {"norad_id": 34845, "name": "COSMOS 2251 DEB", "group": "cosmos-2251-debris", "lat": -49.45422537601361, "lon": -19.017749694501525, "alt_km": 740.072553141983, "timestamp": "2025-12-16T10:53:45.866357+00:00", "meta": {"OBJECT_NAME": "COSMOS 2251 DEB", "OBJECT_ID": "1993-036ABP", "EPOCH": "2025-12-15T18:52:42.405888", "MEAN_MOTION": 14.45864991, "ECCENTRICITY": 0.00224498, "INCLINATION": 74.0238, "RA_OF_ASC_NODE": 142.662, "ARG_OF_PERICENTER": 303.0339, "MEAN_ANOMALY": 56.8662, "EPHEMERIS_TYPE": 0, "CLASSIFICATION_TYPE": "U", "NORAD_CAT_ID": 34845, "ELEMENT_SET_NO": 999, "REV_AT_EPOCH": 87510, "BSTAR": 0.00028097651, "MEAN_MOTION_DOT": 9.74e-06, "MEAN_MOTION_DDOT": 0}, "tle": {"line1": "1 34845U 93036ABP 25349.78660192  .00000974  00000+0  28098-3 0  9996", "line2": "2 34845  74.0238 142.6620 0022449 303.0339  56.8662 14.45864991875108"}}, "geometry": {"type": "Point", "coordinates": [-19.017749694501525, -49.45422537601361]}}, {"type": "Feature", "properties": {"norad_id": 34846, "name": "COSMOS 2251 DEB", "group": "cosmos-2251-debris", "lat": -9.350087044807374, "lon": 77.53199178352139, "alt_km": 750.6277096035092, "timestamp": "2025-12-16T10:53:45.866367+00:00", "meta": {"OBJECT_NAME": "COSMOS 2251 DEB", "OBJECT_ID": "1993-036ABQ", "EPOCH": "2025-12-15T19:05:23.449920", "MEAN_MOTION": 14.47235054, "ECCENTRICITY": 0.00261482, "INCLINATION": 74.031, "RA_OF_ASC_NODE": 256.0607, "ARG_OF_PERICENTER": 322.0428, "MEAN_ANOMALY": 37.8887, "EPHEMERIS_TYPE": 0, "CLASSIFICATION_TYPE": "U", "NORAD_CAT_ID": 34846, "ELEMENT_SET_NO": 999, "REV_AT_EPOCH": 87448, "BSTAR": 0.00055747484, "MEAN_MOTION_DOT": 2.019e-05, "MEAN_MOTION_DDOT": 0}, "tle": {"line1": "1 34846U 93036ABQ 25349.79541030  .00002019  00000+0  55747-3 0  9990", "line2": "2 34846  74.0310 256.0607 0026148 322.0428  37.8887 14.47235054874487"}}, "geometry": {"type": "Point", "coordinates": [77.53199178352139, -9.350087044807374]}}, {"type": "Feature", "properties": {"norad_id": 34852, "name": "COSMOS 2251 DEB", "group": "cosmos-2251-debris", "lat": 56.7391989774395, "lon": 50.26124908700728, "alt_km": 768.5961697448292, "timestamp": "2025-12-16T10:53:45.866377+00:00", "meta": {"OBJECT_NAME": "COSMOS 2251 DEB", "OBJECT_ID": "1993-036ABW", "EPOCH": "2025-12-14T11:33:36.116064", "MEAN_MOTION": 14.37006693, "ECCENTRICITY": 0.00162936, "INCLINATION": 74.033, "RA_OF_ASC_NODE": 259.7687, "ARG_OF_PERICENTER": 2.5812, "MEAN_ANOMALY": 357.5423, "EPHEMERIS_TYPE": 0, "CLASSIFICATION_TYPE": "U", "NORAD_CAT_ID": 34852, "ELEMENT_SET_NO": 999, "REV_AT_EPOCH": 87559, "BSTAR": 0.0001528022, "MEAN_MOTION_DOT": 4.27e-06, "MEAN_MOTION_DDOT": 0}, "tle": {"line1": "1 34852U 93036ABW 25348.48166801  .00000427  00000+0  15280-3 0  9990", "line2": "2 34852  74.0330 259.7687 0016293   2.5812 357.5423 14.37006693875596"}}, "geometry": {"type": "Point", "coordinates": [50.26124908700728, 56.7391989774395]}}, {"type": "Feature", "properties": {"norad_id": 34854, "name": "COSMOS 2251 DEB", "group": "cosmos-2251-debris", "lat": -11.457763674163832, "lon": -25.370435027294025, "alt_km": 628.0588470577686, "timestamp": "2025-12-16T10:53:45.866387+00:00", "meta": {"OBJECT_NAME": "COSMOS 2251 DEB", "OBJECT_ID": "1993-036ABY", "EPOCH": "2025-12-15T17:45:50.311296", "MEAN_MOTION": 14.76656012, "ECCENTRICITY": 0.00661077, "INCLINATION": 74.0282, "RA_OF_ASC_NODE": 152.7005, "ARG_OF_PERICENTER": 263.7765, "MEAN_ANOMALY": 95.5876, "EPHEMERIS_TYPE": 0, "CLASSIFICATION_TYPE": "U", "NORAD_CAT_ID": 34854, "ELEMENT_SET_NO": 999, "REV_AT_EPOCH": 71926, "BSTAR": 0.00049862393, "MEAN_MOTION_DOT": 3.579e-05, "MEAN_MOTION_DDOT": 0}, "tle": {"line1": "1 34854U 93036ABY 25349.74016564  .00003579  00000+0  49862-3 0  9996", "line2": "2 34854  74.0282 152.7005 0066107 263.7765  95.5876 14.76656012719268"}}, "geometry": {"type": "Point", "coordinates": [-25.370435027294025, -11.457763674163832]}}, {"type": "Feature", "properties": {"norad_id": 34856, "name": "COSMOS 2251 DEB", "group": "cosmos-2251-debris", "lat": -55.401688199878386, "lon": 52.6231502447414, "alt_km": 552.8165381876861, "timestamp": "2025-12-16T10:53:45.866398+00:00", "meta": {"OBJECT_NAME": "COSMOS 2251 DEB", "OBJECT_ID": "1993-036ACA", "EPOCH": "2025-12-15T08:23:09.320352", "MEAN_MOTION": 15.0621822, "ECCENTRICITY": 0.00326007, "INCLINATION": 73.9961, "RA_OF_ASC_NODE": 79.4818, "ARG_OF_PERICENTER": 217.4103, "MEAN_ANOMALY": 216.3401, "EPHEMERIS_TYPE": 0, "CLASSIFICATION_TYPE": "U", "NORAD_CAT_ID": 34856, "ELEMENT_SET_NO": 999, "REV_AT_EPOCH": 89151, "BSTAR": 0.0012135652, "MEAN_MOTION_DOT": 0.00018014, "MEAN_MOTION_DDOT": 0}, "tle": {"line1": "1 34856U 93036ACA 25349.34941343  .00018014  00000+0  12136-2 0  9999", "line2": "2 34856  73.9961  79.4818 0032600 217.4103 216.3401 15.06218220891517"}}, "geometry": {"type": "Point", "coordinates": [52.6231502447414, -55.401688199878386]}}, {"type": "Feature", "properties": {"norad_id": 34857, "name": "COSMOS 2251 DEB", "group": "cosmos-2251-debris", "lat": 37.43813841455865, "lon": 112.42206447452352, "alt_km": 739.9812033997287, "timestamp": "2025-12-16T10:53:45.866407+00:00", "meta": {"OBJECT_NAME": "COSMOS 2251 DEB", "OBJECT_ID": "1993-036ACB", "EPOCH": "2025-12-15T00:41:55.180032", "MEAN_MOTION": 14.58919291, "ECCENTRICITY": 0.00657675, "INCLINATION": 74.0154, "RA_OF_ASC_NODE": 102.4616, "ARG_OF_PERICENTER": 226.5367, "MEAN_ANOMALY": 252.0718, "EPHEMERIS_TYPE": 0, "CLASSIFICATION_TYPE": "U", "NORAD_CAT_ID": 34857, "ELEMENT_SET_NO": 999, "REV_AT_EPOCH": 87934, "BSTAR": 0.00075958271, "MEAN_MOTION_DOT": 3.639e-05, "MEAN_MOTION_DDOT": 0}, "tle": {"line1": "1 34857U 93036ACB 25349.02911088  .00003639  00000+0  75958-3 0  9997", "line2": "2 34857  74.0154 102.4616 0065767 226.5367 252.0718 14.58919291879347"}}, "geometry": {"type": "Point", "coordinates": [112.42206447452352, 37.43813841455865]}}, {"type": "Feature", "properties": {"norad_id": 34859, "name": "COSMOS 2251 DEB", "group": "cosmos-2251-debris", "lat": 20.975042386378593, "lon": -21.766788148588248, "alt_km": 518.0674188622288, "timestamp": "2025-12-16T10:53:45.866418+00:00", "meta": {"OBJECT_NAME": "COSMOS 2251 DEB", "OBJECT_ID": "1993-036ACD", "EPOCH": "2025-12-15T22:14:17.926368", "MEAN_MOTION": 15.15289529, "ECCENTRICITY": 0.00022022, "INCLINATION": 74.0287, "RA_OF_ASC_NODE": 333.0272, "ARG_OF_PERICENTER": 3.5984, "MEAN_ANOMALY": 22.5088, "EPHEMERIS_TYPE": 0, "CLASSIFICATION_TYPE": "U", "NORAD_CAT_ID": 34859, "ELEMENT_SET_NO": 999, "REV_AT_EPOCH": 88407, "BSTAR": 0.0036038076, "MEAN_MOTION_DOT": 0.00068478, "MEAN_MOTION_DDOT": 0}, "tle": {"line1": "1 34859U 93036ACD 25349.92659637  .00068478  00000+0  36038-2 0  9994", "line2": "2 34859  74.0287 333.0272 0002202   3.5984  22.5088 15.15289529884073"}}, "geometry": {"type": "Point", "coordinates": [-21.766788148588248, 20.975042386378593]}}, {"type": "Feature", "properties": {"norad_id": 34861, "name": "COSMOS 2251 DEB", "group": "cosmos-2251-debris", "lat": 53.37043503191819, "lon": -159.4101750121651, "alt_km": 552.6537183037462, "timestamp": "2025-12-16T10:53:45.866428+00:00", "meta": {"OBJECT_NAME": "COSMOS 2251 DEB", "OBJECT_ID": "1993-036ACF", "EPOCH": "2025-12-15T22:20:53.043936", "MEAN_MOTION": 15.02780242, "ECCENTRICITY": 0.00073366, "INCLINATION": 74.019, "RA_OF_ASC_NODE": 44.3305, "ARG_OF_PERICENTER": 37.28, "MEAN_ANOMALY": 138.6297, "EPHEMERIS_TYPE": 0, "CLASSIFICATION_TYPE": "U", "NORAD_CAT_ID": 34861, "ELEMENT_SET_NO": 999, "REV_AT_EPOCH": 88140, "BSTAR": 0.0017236131, "MEAN_MOTION_DOT": 0.00023113, "MEAN_MOTION_DDOT": 0}, "tle": {"line1": "1 34861U 93036ACF 25349.93116949  .00023113  00000+0  17236-2 0  9998", "line2": "2 34861  74.0190  44.3305 0007336  37.2800 138.6297 15.02780242881401"}}, "geometry": {"type": "Point", "coordinates": [-159.4101750121651, 53.37043503191819]}}, {"type": "Feature", "properties": {"norad_id": 34874, "name": "COSMOS 2251 DEB", "group": "cosmos-2251-debris", "lat": -73.94766576457913, "lon": -29.019764263212863, "alt_km": 813.916241833078, "timestamp": "2025-12-16T10:53:45.866438+00:00", "meta": {"OBJECT_NAME": "COSMOS 2251 DEB", "OBJECT_ID": "1993-036ACM", "EPOCH": "2025-12-15T15:57:33.247296", "MEAN_MOTION": 14.36325201, "ECCENTRICITY": 0.00508248, "INCLINATION": 74.0399, "RA_OF_ASC_NODE": 68.3924, "ARG_OF_PERICENTER": 92.7738, "MEAN_ANOMALY": 57.2671, "EPHEMERIS_TYPE": 0, "CLASSIFICATION_TYPE": "U", "NORAD_CAT_ID": 34874, "ELEMENT_SET_NO": 999, "REV_AT_EPOCH": 87086, "BSTAR": 0.00056877807, "MEAN_MOTION_DOT": 1.663e-05, "MEAN_MOTION_DDOT": 0}, "tle": {"line1": "1 34874U 93036ACM 25349.66496814  .00001663  00000+0  56878-3 0  9996", "line2": "2 34874  74.0399  68.3924 0050824  92.7738  57.2671 14.36325201870861"}}, "geometry": {"type": "Point", "coordinates": [-29.019764263212863, -73.94766576457913]}}]}